ONEWEB-0018             
1 45434U 20020L   26148.15184868 -.00000444  00000+0 -12878-2 0  9997
2 45434  87.8910  25.0528 0001749  69.4254 290.7062 13.11418108300005
ONEWEB-0083             
1 45435U 20020M   26148.21810998 -.00000456  00000+0 -13224-2 0  9994
2 45435  87.8913  25.0320 0001723  81.3257 278.8066 13.11415768300052
ONEWEB-0095             
1 45436U 20020N   26148.20963634 -.00000171  00000+0 -51828-3 0  9997
2 45436  87.8914  25.0420 0002109 103.9148 256.2214 13.11416833300053
ONEWEB-0092             
1 45437U 20020P   26148.16979375  .00000249  00000+0  66153-3 0  9993
2 45437  87.8914  25.0447 0002047  89.3416 270.7947 13.11956145300160
ONEWEB-0085             
1 45438U 20020Q   26148.21783936 -.00000501  00000+0 -14504-2 0  9991
2 45438  87.8905  25.0405 0001797  82.9765 277.1567 13.11415992300059
ONEWEB-0096             
1 45439U 20020R   26148.21967753 -.00000519  00000+0 -15013-2 0  9998
2 45439  87.8917  25.0341 0001872  82.0951 278.0390 13.11416789300042
ONEWEB-0037             
1 45440U 20020S   26148.18423039  .00000519  00000+0  14190-2 0  9993
2 45440  87.8925  25.0162 0001848  84.7888 275.3451 13.11911006300078
ONEWEB-0042             
1 45441U 20020T   26148.13306483 -.00000213  00000+0 -63733-3 0  9993
2 45441  87.8912  25.0481 0001877  80.6486 279.4854 13.11415109300031
ONEWEB-0098             
1 45442U 20020U   26148.20525996 -.00000028  00000+0 -11543-3 0  9990
2 45442  87.8910  25.0435 0001713  81.6473 278.4849 13.11414216300025
ONEWEB-0055             
1 45443U 20020V   26148.18393320  .00000573  00000+0  15812-2 0  9997
2 45443  87.8913  25.0461 0001715  81.8384 278.2939 13.11414439299991
ONEWEB-0093             
1 45444U 20020W   26148.16386554 -.00000035  00000+0 -13348-3 0  9995
2 45444  87.8916  25.0427 0002166  77.1319 283.0051 13.11419719300059
ONEWEB-0029             
1 45445U 20020X   26148.19087166  .00020397  00000+0  57711-1 0  9997
2 45445  87.8936  25.0503 0002501  75.2729 284.8676 13.11030438300031
ONEWEB-0068             
1 45446U 20020Y   26148.16358768 -.00000078  00000+0 -25652-3 0  9991
2 45446  87.8917  25.0464 0001909  76.9813 283.1528 13.11418841299976
ONEWEB-0046             
1 45447U 20020Z   26148.15524154 -.00000398  00000+0 -11595-2 0  9990
2 45447  87.8911  25.0551 0002064  82.3316 277.8046 13.11418740299984
ONEWEB-0063             
1 45448U 20020AA  26148.18423031  .00003149  00000+0  88468-2 0  9994
2 45448  87.8918  25.0470 0002192  89.5025 270.6354 13.11402852300073
ONEWEB-0019             
1 45449U 20020AB  26148.14662334 -.00000519  00000+0 -14990-2 0  9991
2 45449  87.8910  25.0424 0001641  82.4437 277.6877 13.11416340299916
