[{"OBJECT_NAME":"ONEWEB-0018","OBJECT_ID":"2020-020L","EPOCH":"2026-05-28T03:38:39.725952","MEAN_MOTION":13.11418108,"ECCENTRICITY":0.0001749,"INCLINATION":87.891,"RA_OF_ASC_NODE":25.0528,"ARG_OF_PERICENTER":69.4254,"MEAN_ANOMALY":290.7062,"EPHEMERIS_TYPE":0,"CLASSIFICATION_TYPE":"U","NORAD_CAT_ID":45434,"ELEMENT_SET_NO":999,"REV_AT_EPOCH":30000,"BSTAR":-0.0012878000000000002,"MEAN_MOTION_DOT":-4.44e-06,"MEAN_MOTION_DDOT":0.0},{"OBJECT_NAME":"ONEWEB-0083","OBJECT_ID":"2020-020M","EPOCH":"2026-05-28T05:14:04.702272","MEAN_MOTION":13.11415768,"ECCENTRICITY":0.0001723,"INCLINATION":87.8913,"RA_OF_ASC_NODE":25.032,"ARG_OF_PERICENTER":81.3257,"MEAN_ANOMALY":278.8066,"EPHEMERIS_TYPE":0,"CLASSIFICATION_TYPE":"U","NORAD_CAT_ID":45435,"ELEMENT_SET_NO":999,"REV_AT_EPOCH":30005,"BSTAR":-0.0013224,"MEAN_MOTION_DOT":-4.56e-06,"MEAN_MOTION_DDOT":0.0},{"OBJECT_NAME":"ONEWEB-0095","OBJECT_ID":"2020-020N","EPOCH":"2026-05-28T05:01:52.579776","MEAN_MOTION":13.11416833,"ECCENTRICITY":0.0002109,"INCLINATION":87.8914,"RA_OF_ASC_NODE":25.042,"ARG_OF_PERICENTER":103.9148,"MEAN_ANOMALY":256.2214,"EPHEMERIS_TYPE":0,"CLASSIFICATION_TYPE":"U","NORAD_CAT_ID":45436,"ELEMENT_SET_NO":999,"REV_AT_EPOCH":30005,"BSTAR":-0.00051828,"MEAN_MOTION_DOT":-1.71e-06,"MEAN_MOTION_DDOT":0.0},{"OBJECT_NAME":"ONEWEB-0092","OBJECT_ID":"2020-020P","EPOCH":"2026-05-28T04:04:30.180000","MEAN_MOTION":13.11956145,"ECCENTRICITY":0.0002047,"INCLINATION":87.8914,"RA_OF_ASC_NODE":25.0447,"ARG_OF_PERICENTER":89.3416,"MEAN_ANOMALY":270.7947,"EPHEMERIS_TYPE":0,"CLASSIFICATION_TYPE":"U","NORAD_CAT_ID":45437,"ELEMENT_SET_NO":999,"REV_AT_EPOCH":30016,"BSTAR":0.00066153,"MEAN_MOTION_DOT":2.49e-06,"MEAN_MOTION_DDOT":0.0},{"OBJECT_NAME":"ONEWEB-0085","OBJECT_ID":"2020-020Q","EPOCH":"2026-05-28T05:13:41.320704","MEAN_MOTION":13.11415992,"ECCENTRICITY":0.0001797,"INCLINATION":87.8905,"RA_OF_ASC_NODE":25.0405,"ARG_OF_PERICENTER":82.9765,"MEAN_ANOMALY":277.1567,"EPHEMERIS_TYPE":0,"CLASSIFICATION_TYPE":"U","NORAD_CAT_ID":45438,"ELEMENT_SET_NO":999,"REV_AT_EPOCH":30005,"BSTAR":-0.0014504000000000001,"MEAN_MOTION_DOT":-5.01e-06,"MEAN_MOTION_DDOT":0.0},{"OBJECT_NAME":"ONEWEB-0096","OBJECT_ID":"2020-020R","EPOCH":"2026-05-28T05:16:20.138592","MEAN_MOTION":13.11416789,"ECCENTRICITY":0.0001872,"INCLINATION":87.8917,"RA_OF_ASC_NODE":25.0341,"ARG_OF_PERICENTER":82.0951,"MEAN_ANOMALY":278.039,"EPHEMERIS_TYPE":0,"CLASSIFICATION_TYPE":"U","NORAD_CAT_ID":45439,"ELEMENT_SET_NO":999,"REV_AT_EPOCH":30004,"BSTAR":-0.0015013000000000001,"MEAN_MOTION_DOT":-5.19e-06,"MEAN_MOTION_DDOT":0.0},{"OBJECT_NAME":"ONEWEB-0037","OBJECT_ID":"2020-020S","EPOCH":"2026-05-28T04:25:17.505696","MEAN_MOTION":13.11911006,"ECCENTRICITY":0.0001848,"INCLINATION":87.8925,"RA_OF_ASC_NODE":25.0162,"ARG_OF_PERICENTER":84.7888,"MEAN_ANOMALY":275.3451,"EPHEMERIS_TYPE":0,"CLASSIFICATION_TYPE":"U","NORAD_CAT_ID":45440,"ELEMENT_SET_NO":999,"REV_AT_EPOCH":30007,"BSTAR":0.001419,"MEAN_MOTION_DOT":5.19e-06,"MEAN_MOTION_DDOT":0.0},{"OBJECT_NAME":"ONEWEB-0042","OBJECT_ID":"2020-020T","EPOCH":"2026-05-28T03:11:36.801312","MEAN_MOTION":13.11415109,"ECCENTRICITY":0.0001877,"INCLINATION":87.8912,"RA_OF_ASC_NODE":25.0481,"ARG_OF_PERICENTER":80.6486,"MEAN_ANOMALY":279.4854,"EPHEMERIS_TYPE":0,"CLASSIFICATION_TYPE":"U","NORAD_CAT_ID":45441,"ELEMENT_SET_NO":999,"REV_AT_EPOCH":30003,"BSTAR":-0.00063733,"MEAN_MOTION_DOT":-2.13e-06,"MEAN_MOTION_DDOT":0.0},{"OBJECT_NAME":"ONEWEB-0098","OBJECT_ID":"2020-020U","EPOCH":"2026-05-28T04:55:34.460544","MEAN_MOTION":13.11414216,"ECCENTRICITY":0.0001713,"INCLINATION":87.891,"RA_OF_ASC_NODE":25.0435,"ARG_OF_PERICENTER":81.6473,"MEAN_ANOMALY":278.4849,"EPHEMERIS_TYPE":0,"CLASSIFICATION_TYPE":"U","NORAD_CAT_ID":45442,"ELEMENT_SET_NO":999,"REV_AT_EPOCH":30002,"BSTAR":-0.00011543000000000001,"MEAN_MOTION_DOT":-2.8e-07,"MEAN_MOTION_DDOT":0.0},{"OBJECT_NAME":"ONEWEB-0055","OBJECT_ID":"2020-020V","EPOCH":"2026-05-28T04:24:51.828480","MEAN_MOTION":13.11414439,"ECCENTRICITY":0.0001715,"INCLINATION":87.8913,"RA_OF_ASC_NODE":25.0461,"ARG_OF_PERICENTER":81.8384,"MEAN_ANOMALY":278.2939,"EPHEMERIS_TYPE":0,"CLASSIFICATION_TYPE":"U","NORAD_CAT_ID":45443,"ELEMENT_SET_NO":999,"REV_AT_EPOCH":29999,"BSTAR":0.0015812,"MEAN_MOTION_DOT":5.73e-06,"MEAN_MOTION_DDOT":0.0},{"OBJECT_NAME":"ONEWEB-0093","OBJECT_ID":"2020-020W","EPOCH":"2026-05-28T03:55:57.982656","MEAN_MOTION":13.11419719,"ECCENTRICITY":0.0002166,"INCLINATION":87.8916,"RA_OF_ASC_NODE":25.0427,"ARG_OF_PERICENTER":77.1319,"MEAN_ANOMALY":283.0051,"EPHEMERIS_TYPE":0,"CLASSIFICATION_TYPE":"U","NORAD_CAT_ID":45444,"ELEMENT_SET_NO":999,"REV_AT_EPOCH":30005,"BSTAR":-0.00013348,"MEAN_MOTION_DOT":-3.5e-07,"MEAN_MOTION_DDOT":0.0},{"OBJECT_NAME":"ONEWEB-0029","OBJECT_ID":"2020-020X","EPOCH":"2026-05-28T04:34:51.311424","MEAN_MOTION":13.11030438,"ECCENTRICITY":0.0002501,"INCLINATION":87.8936,"RA_OF_ASC_NODE":25.0503,"ARG_OF_PERICENTER":75.2729,"MEAN_ANOMALY":284.8676,"EPHEMERIS_TYPE":0,"CLASSIFICATION_TYPE":"U","NORAD_CAT_ID":45445,"ELEMENT_SET_NO":999,"REV_AT_EPOCH":30003,"BSTAR":0.057711000000000005,"MEAN_MOTION_DOT":0.00020397,"MEAN_MOTION_DDOT":0.0},{"OBJECT_NAME":"ONEWEB-0068","OBJECT_ID":"2020-020Y","EPOCH":"2026-05-28T03:55:33.975552","MEAN_MOTION":13.11418841,"ECCENTRICITY":0.0001909,"INCLINATION":87.8917,"RA_OF_ASC_NODE":25.0464,"ARG_OF_PERICENTER":76.9813,"MEAN_ANOMALY":283.1528,"EPHEMERIS_TYPE":0,"CLASSIFICATION_TYPE":"U","NORAD_CAT_ID":45446,"ELEMENT_SET_NO":999,"REV_AT_EPOCH":29997,"BSTAR":-0.00025652000000000004,"MEAN_MOTION_DOT":-7.8e-07,"MEAN_MOTION_DDOT":0.0},{"OBJECT_NAME":"ONEWEB-0046","OBJECT_ID":"2020-020Z","EPOCH":"2026-05-28T03:43:32.869056","MEAN_MOTION":13.1141874,"ECCENTRICITY":0.0002064,"INCLINATION":87.8911,"RA_OF_ASC_NODE":25.0551,"ARG_OF_PERICENTER":82.3316,"MEAN_ANOMALY":277.8046,"EPHEMERIS_TYPE":0,"CLASSIFICATION_TYPE":"U","NORAD_CAT_ID":45447,"ELEMENT_SET_NO":999,"REV_AT_EPOCH":29998,"BSTAR":-0.0011595,"MEAN_MOTION_DOT":-3.98e-06,"MEAN_MOTION_DDOT":0.0},{"OBJECT_NAME":"ONEWEB-0063","OBJECT_ID":"2020-020AA","EPOCH":"2026-05-28T04:25:17.498784","MEAN_MOTION":13.11402852,"ECCENTRICITY":0.0002192,"INCLINATION":87.8918,"RA_OF_ASC_NODE":25.047,"ARG_OF_PERICENTER":89.5025,"MEAN_ANOMALY":270.6354,"EPHEMERIS_TYPE":0,"CLASSIFICATION_TYPE":"U","NORAD_CAT_ID":45448,"ELEMENT_SET_NO":999,"REV_AT_EPOCH":30007,"BSTAR":0.0088468,"MEAN_MOTION_DOT":3.149e-05,"MEAN_MOTION_DDOT":0.0},{"OBJECT_NAME":"ONEWEB-0019","OBJECT_ID":"2020-020AB","EPOCH":"2026-05-28T03:31:08.256576","MEAN_MOTION":13.1141634,"ECCENTRICITY":0.0001641,"INCLINATION":87.891,"RA_OF_ASC_NODE":25.0424,"ARG_OF_PERICENTER":82.4437,"MEAN_ANOMALY":277.6877,"EPHEMERIS_TYPE":0,"CLASSIFICATION_TYPE":"U","NORAD_CAT_ID":45449,"ELEMENT_SET_NO":999,"REV_AT_EPOCH":29991,"BSTAR":-0.0014990000000000001,"MEAN_MOTION_DOT":-5.19e-06,"MEAN_MOTION_DDOT":0.0}]